{
  "type": "FeatureCollection",
  "features": [
    { "type": "Feature", "properties": { "name": "Mediterranean Sea" }, "geometry": { "type": "Point", "coordinates": [32.0, 33.5] } },
    { "type": "Feature", "properties": { "name": "Sea of Galilee" }, "geometry": { "type": "Point", "coordinates": [35.68, 32.83] } },
    { "type": "Feature", "properties": { "name": "Dead Sea" }, "geometry": { "type": "Point", "coordinates": [35.49, 31.35] } },
    { "type": "Feature", "properties": { "name": "Red Sea" }, "geometry": { "type": "Point", "coordinates": [34.9, 27.5] } }
  ]
}
