{"type": "FeatureCollection", "features": [{"type": "Feature", "properties": {"name": "Red Sea", "kind": "sea", "source": "Natural Earth 10m marine polygons (modern extent)"}, "geometry": {"type": "Polygon", "coordinates": [[[43.254, 13.2287], [43.4754, 12.8392], [43.4876, 12.699], [43.4892, 12.6995], [43.3003, 12.4614], [43.2987, 12.464], [43.1309, 12.6604], [43.1166, 12.7085], [43.0828, 12.8244], [43.0055, 12.8939], [42.9992, 12.8995], [42.9696, 12.8085], [42.796, 12.8641], [42.7346, 13.0186], [42.5229, 13.2213], [42.3991, 13.2128], [42.3467, 13.398], [42.2451, 13.5875], [41.6583, 13.9833], [41.4799, 14.2436], [41.1762, 14.6204], [40.7994, 14.7432], [40.6343, 14.8829], [40.5465, 14.9337], [40.4364, 14.9638], [40.3052, 14.9739], [40.2041, 15.0141], [40.084, 15.1517], [40.0581, 15.2173], [40.0411, 15.3348], [39.9782, 15.393], [39.8639, 15.4702], [39.8136, 15.4136], [39.7903, 15.3189], [39.8157, 15.2453], [39.8194, 15.2014], [39.7855, 15.1247], [39.721, 15.2136], [39.631, 15.4528], [39.5786, 15.5226], [39.5067, 15.5322], [39.422, 15.7867], [39.2987, 15.9211], [39.2225, 16.1936], [39.1426, 16.7291], [39.0347, 17.0858], [38.9119, 17.4271], [38.6092, 18.0049], [38.5737, 18.0732], [38.333, 18.2192], [38.2832, 18.287], [38.252, 18.2642], [38.2017, 18.2494], [38.1282, 18.333], [38.0742, 18.4098], [37.9218, 18.5558], [37.7297, 18.6944], [37.5995, 18.7172], [37.5318, 18.7532], [37.4715, 18.8204], [37.3614, 19.0919], [37.2482, 19.5819], [37.2625, 19.7919], [37.1932, 20.1206], [37.1878, 20.3952], [37.2275, 20.5566], [37.1725, 20.7317], [37.1566, 20.8947], [37.1413, 20.9815], [37.1508, 21.1038], [37.2175, 21.0778], [37.2572, 21.0392], [37.263, 21.0725], [37.2587, 21.1085], [37.2117, 21.1858], [37.081, 21.326], [36.927, 21.5864], [36.8825, 21.7689], [36.8714, 21.997], [36.8703, 22.0155], [36.8296, 22.0975], [36.4148, 22.3944], [36.2296, 22.6288], [35.9136, 22.7394], [35.8459, 22.7854], [35.7972, 22.8489], [35.6977, 22.9463], [35.5644, 23.2712], [35.5226, 23.4427], [35.5046, 23.7792], [35.5152, 23.8427], [35.5405, 23.9205], [35.594, 23.9427], [35.6321, 23.9501], [35.784, 23.938], [35.6247, 24.066], [35.4781, 24.1549], [35.3971, 24.2698], [35.194, 24.4751], [34.8531, 25.1397], [34.6791, 25.4424], [34.5653, 25.6911], [34.3293, 26.0245], [34.0494, 26.551], [33.9589, 26.6489], [33.8933, 27.0495], [33.8493, 27.1849], [33.8282, 27.222], [33.8387, 27.2278], [33.9732, 27.4775], [34.0002, 27.5247], [34.2055, 27.7696], [34.2203, 27.7644], [34.3187, 27.8887], [34.3886, 27.9993], [34.4251, 27.976], [34.506, 27.9961], [34.5864, 28.084], [34.6225, 28.0877], [34.6251, 28.0644], [34.7219, 28.1306], [34.8278, 28.1089], [35.078, 28.0871], [35.1807, 28.0348], [35.4236, 27.7337], [35.5813, 27.4326], [35.7628, 27.259], [35.8517, 27.0706], [36.0321, 26.8812], [36.0935, 26.7658], [36.2497, 26.5949], [36.519, 26.1049], [36.6751, 26.0387], [36.7026, 25.9028], [36.763, 25.7514], [36.8603, 25.6927], [36.9206, 25.6414], [37.1487, 25.291], [37.2185, 25.1508], [37.2434, 25.0736], [37.2662, 24.9603], [37.2201, 24.8735], [37.181, 24.8201], [37.3387, 24.6158], [37.4307, 24.4592], [37.5429, 24.2914], [37.6382, 24.2777], [37.7133, 24.2745], [37.8207, 24.1877], [37.9197, 24.1856], [37.9779, 24.1248], [38.0985, 24.0581], [38.2891, 23.911], [38.4642, 23.712], [38.5425, 23.558], [38.706, 23.3056], [38.7568, 23.1945], [38.797, 23.0484], [38.8357, 22.9892], [38.941, 22.8818], [38.8828, 22.8823], [38.9388, 22.805], [39.0077, 22.7701], [39.0013, 22.6992], [39.0621, 22.5923], [39.096, 22.3928], [39.0701, 22.2938], [39.0341, 22.2033], [39.0214, 22.0335], [38.9881, 21.8816], [39.0299, 21.7758], [39.0907, 21.6641], [39.1474, 21.5192], [39.1505, 21.4329], [39.0934, 21.3101], [39.2759, 20.9741], [39.4913, 20.737], [39.6135, 20.5174], [39.7284, 20.3904], [39.884, 20.2931], [40.0808, 20.2661], [40.4825, 19.9936], [40.6158, 19.8221], [40.7592, 19.7554], [40.7772, 19.7168], [40.7915, 19.6464], [40.8481, 19.5554], [40.9132, 19.4903], [41.1159, 19.0823], [41.1444, 18.9892], [41.191, 18.8712], [41.2206, 18.7654], [41.2296, 18.6786], [41.4318, 18.4526], [41.5074, 18.2563], [41.6577, 18.0076], [41.7498, 17.8859], [42.0525, 17.6695], [42.2938, 17.435], [42.3324, 17.2567], [42.3832, 17.1223], [42.4748, 17.0498], [42.5441, 16.9598], [42.5531, 16.8683], [42.6472, 16.8011], [42.6986, 16.7371], [42.7266, 16.6535], [42.7309, 16.5698], [42.7896, 16.4513], [42.7991, 16.3719], [42.8399, 16.0322], [42.7171, 15.6544], [42.7997, 15.3718], [42.7991, 15.3263], [42.7885, 15.2655], [42.7367, 15.2935], [42.698, 15.3263], [42.6578, 15.2326], [42.8558, 15.1332], [42.8971, 15.0056], [42.9362, 14.9384], [42.9373, 14.8982], [42.9129, 14.8633], [42.9219, 14.8172], [42.9468, 14.7733], [43.0209, 14.5548], [43.0187, 14.5209], [43.006, 14.4834], [43.0447, 14.3415], [43.0934, 14.2039], [43.0891, 14.0108], [43.2341, 13.8589], [43.2822, 13.6928], [43.2828, 13.6398], [43.232, 13.2673], [43.254, 13.2287]], [[41.8974, 16.6841], [41.9641, 16.6535], [42.0715, 16.6714], [42.1022, 16.6439], [42.1086, 16.6185], [42.1276, 16.5947], [42.1578, 16.5709], [42.1673, 16.5963], [42.1705, 16.7085], [42.0599, 16.8037], [42.0266, 16.7577], [42.0334, 16.7418], [42.0652, 16.7101], [41.9879, 16.7154], [41.9467, 16.7487], [41.9625, 16.7789], [41.9541, 16.8064], [41.9477, 16.9366], [41.917, 16.9937], [41.8604, 17.0027], [41.8848, 16.9466], [41.8583, 16.8932], [41.8159, 16.8604], [41.7762, 16.8471], [41.8017, 16.7789], [41.8974, 16.6841]], [[40.0162, 15.7332], [40.0708, 15.6766], [40.0633, 15.666], [40.0242, 15.6555], [39.9475, 15.6962], [39.975, 15.6126], [40.0951, 15.5909], [40.1956, 15.5983], [40.3047, 15.5771], [40.3989, 15.5798], [40.4084, 15.629], [40.2501, 15.7036], [40.2343, 15.666], [40.2115, 15.648], [40.1824, 15.6427], [40.1411, 15.6962], [40.1322, 15.7952], [40.0967, 15.8385], [40.0427, 15.8756], [39.957, 15.8893], [40.0004, 15.8285], [39.9792, 15.8068], [39.9453, 15.7893], [39.9401, 15.7443], [40.0162, 15.7332]]]}}, {"type": "Feature", "properties": {"name": "Mediterranean Sea", "kind": "sea", "source": "Natural Earth 10m marine polygons (modern extent)"}, "geometry": {"type": "Polygon", "coordinates": [[[11.0592, 37.0481], [11.0539, 37.0724], [10.9512, 37.0592], [10.766, 36.93], [10.5713, 36.8793], [10.5184, 36.7914], [10.4126, 36.7316], [10.2935, 36.7814], [10.3342, 36.8655], [10.1887, 37.0338], [10.1967, 37.2058], [10.0871, 37.2513], [9.9882, 37.2576], [9.8754, 37.2539], [9.8797, 37.2126], [9.8966, 37.1814], [9.8305, 37.1354], [9.7839, 37.2116], [9.8157, 37.2544], [9.8384, 37.3089], [9.759, 37.3301], [9.6881, 37.3402], [9.142, 37.1946], [9.059, 37.156], [8.8235, 36.9978], [8.5764, 36.9369], [8.1271, 36.9105], [7.9107, 36.8565], [7.7916, 36.8803], [7.608, 36.9999], [7.4323, 37.0592], [7.2042, 37.0925], [7.2386, 36.9687], [7.1434, 36.9433], [6.9275, 36.9195], [6.5761, 37.0031], [6.4867, 37.0856], [6.3279, 37.046], [6.2491, 36.9385], [6.0649, 36.8644], [5.7257, 36.7994], [5.4246, 36.6755], [5.2955, 36.648], [5.1955, 36.6766], [4.9955, 36.8078], [4.878, 36.8623], [4.7579, 36.8962], [3.7789, 36.8962], [3.5207, 36.7951], [2.973, 36.7845], [2.8465, 36.739], [2.5936, 36.6009], [2.3428, 36.6105], [1.9745, 36.5676], [1.2574, 36.5194], [0.9717, 36.4438], [0.7907, 36.3564], [0.515, 36.2617], [0.3123, 36.1622], [0.1515, 36.0633], [0.0478, 35.9003], [-0.048, 35.8326], [-0.1893, 35.8193], [-0.3507, 35.8633], [-0.4264, 35.8617], [-0.9174, 35.6685], [-1.0878, 35.5786], [-1.2053, 35.496], [-1.2498, 35.4516], [-1.2524, 35.4542], [-2.0726, 36.7771], [-2.0911, 36.7962], [-1.9393, 36.9459], [-1.7974, 37.2327], [-1.6408, 37.3867], [-1.3275, 37.5614], [-0.9381, 37.5714], [-0.8222, 37.5809], [-0.7719, 37.5963], [-0.7217, 37.6312], [-0.8233, 37.7117], [-0.8148, 37.7698], [-0.7529, 37.8503], [-0.7418, 37.8863], [-0.683, 37.9921], [-0.647, 38.1519], [-0.5507, 38.2032], [-0.5206, 38.317], [-0.3814, 38.4355], [-0.0528, 38.5858], [0.1361, 38.6969], [0.2018, 38.7594], [0.2282, 38.7403], [1.5628, 38.6604], [1.5051, 38.671], [1.4056, 38.671], [1.4019, 38.7112], [1.4173, 38.7398], [1.4363, 38.7684], [1.4971, 38.7118], [1.5929, 38.7017], [1.594, 38.6721], [1.5728, 38.6599], [1.5797, 38.6594], [3.1836, 39.3171], [4.2816, 39.8161], [4.2753, 39.8304], [4.2938, 39.8421], [4.3218, 39.8976], [4.315, 39.9172], [4.2261, 40.0326], [4.1282, 40.0575], [3.272, 41.963], [3.2633, 41.9624], [3.2633, 41.9624], [5.4057, 43.23], [5.4066, 43.2287], [5.6717, 43.1779], [5.8093, 43.098], [6.0305, 43.1012], [6.1157, 43.0721], [6.3052, 43.1388], [6.4941, 43.1695], [6.5703, 43.1991], [6.657, 43.2615], [6.6872, 43.3346], [6.7168, 43.3737], [6.8645, 43.4383], [7.1815, 43.6589], [7.2613, 43.696], [7.4931, 43.7669], [7.7334, 43.8023], [7.8218, 43.8267], [9.3839, 43.0213], [9.3839, 43.0192], [9.3632, 43.0176], [9.3309, 42.944], [9.323, 42.8139], [9.3383, 42.7668], [9.3135, 42.7133], [9.2875, 42.6948], [9.2537, 42.7123], [9.1981, 42.7292], [9.1378, 42.7329], [9.0886, 42.7049], [9.0436, 42.6615], [8.9949, 42.6456], [8.815, 42.608], [8.7129, 42.5498], [8.6399, 42.4265], [8.5875, 42.3852], [8.5658, 42.3577], [8.5922, 42.3445], [8.6261, 42.3434], [8.6753, 42.2842], [8.6081, 42.2582], [8.5663, 42.2186], [8.588, 42.1609], [8.6414, 42.118], [8.7012, 42.0958], [8.7023, 42.0429], [8.6536, 41.9958], [8.615, 41.9593], [8.6218, 41.9307], [8.6737, 41.9222], [8.7404, 41.9254], [8.7589, 41.8704], [8.7187, 41.8042], [8.7182, 41.7614], [8.7711, 41.737], [8.887, 41.7005], [8.879, 41.6687], [8.8298, 41.6275], [8.8076, 41.5883], [8.842, 41.5587], [8.8949, 41.5164], [9.0028, 41.4767], [9.1859, 41.3851], [9.187, 41.3867], [9.1981, 41.2618], [9.2024, 41.2486], [9.1823, 41.2422], [9.1632, 41.1851], [9.1071, 41.1428], [8.9981, 41.1105], [8.8214, 40.9501], [8.6991, 40.8951], [8.5721, 40.8501], [8.4684, 40.8343], [8.3631, 40.8464], [8.3102, 40.8575], [8.2451, 40.9068], [8.2244, 40.9131], [8.2038, 40.8708], [8.181, 40.7713], [8.1901, 40.6517], [8.2303, 40.6062], [8.2953, 40.5586], [8.353, 40.5003], [8.3853, 40.4427], [8.4091, 40.3522], [8.471, 40.2929], [8.471, 40.131], [8.4552, 40.0776], [8.4086, 40.0379], [8.3991, 39.9781], [8.4075, 39.9172], [8.4959, 39.8976], [8.5478, 39.8394], [8.5388, 39.7696], [8.5403, 39.7315], [8.5107, 39.7214], [8.471, 39.7479], [8.4515, 39.7214], [8.461, 39.6479], [8.4472, 39.5626], [8.4186, 39.523], [8.3991, 39.4817], [8.4107, 39.2917], [8.4181, 39.2055], [8.4864, 39.1108], [8.553, 39.0303], [8.5954, 38.9642], [8.6483, 38.9266], [8.7187, 38.9266], [8.8013, 38.9097], [8.8811, 38.9128], [8.9023, 38.9256], [8.906, 38.9192], [12.453, 37.7296], [12.4747, 37.7444], [12.5266, 37.6693], [12.6403, 37.5942], [12.6991, 37.5719], [12.7573, 37.5672], [12.8711, 37.5751], [12.924, 37.5704], [13.0404, 37.5063], [13.17, 37.4793], [13.2213, 37.4518], [13.2648, 37.4106], [13.3611, 37.3486], [13.587, 37.2539], [13.8008, 37.1359], [13.9056, 37.1004], [14.0241, 37.1073], [14.1432, 37.1036], [14.2591, 37.0465], [14.3675, 36.9729], [14.5019, 36.7988], [14.5554, 36.7766], [14.6141, 36.7665], [14.7761, 36.7105], [14.8898, 36.7237], [15.0025, 36.6941], [15.1126, 36.6877], [15.1116, 36.6343], [22.4543, 36.4628], [22.4892, 36.4469], [22.4892, 36.5681], [22.6083, 36.7798], [22.7172, 36.7941], [22.7797, 36.7861], [22.8321, 36.6872], [22.9829, 36.5284], [23.0607, 36.4872], [23.0861, 36.4676], [23.0766, 36.4549], [23.0094, 36.3189], [23.0972, 36.2464], [23.0538, 36.1898], [23.0422, 36.1464], [23.0268, 36.1506], [23.2216, 35.7892], [23.5777, 35.541], [23.5698, 35.5347], [23.5475, 35.4156], [23.5618, 35.295], [23.593, 35.2574], [23.638, 35.2351], [23.7042, 35.2336], [23.8835, 35.2462], [23.9941, 35.2219], [24.4635, 35.1605], [24.5836, 35.1156], [24.7091, 35.0891], [24.735, 35.0584], [24.7439, 35.0145], [24.745, 34.9505], [24.7996, 34.9346], [25.2059, 34.9594], [25.6108, 35.0071], [25.8298, 35.025], [26.0468, 35.014], [26.1653, 35.0187], [26.2442, 35.0446], [26.2558, 35.0949], [26.2806, 35.1595], [26.2987, 35.2685], [26.3193, 35.3129], [26.3225, 35.3113], [27.1067, 35.4473], [27.0993, 35.4563], [27.1157, 35.5114], [27.0707, 35.5976], [27.1559, 35.7262], [27.158, 35.7886], [27.2231, 35.8204], [27.2073, 35.7146], [27.1575, 35.6294], [27.1702, 35.6119], [27.1707, 35.6125], [27.738, 35.9231], [27.7459, 35.9109], [27.7708, 35.9082], [27.8428, 35.9294], [27.9656, 36.0474], [28.0878, 36.0654], [28.0677, 36.1294], [28.1438, 36.2099], [28.2301, 36.3702], [28.2317, 36.4337], [28.1714, 36.4263], [28.1359, 36.4152], [28.0846, 36.6427], [28.1116, 36.6464], [28.1957, 36.6861], [28.3037, 36.8121], [28.4836, 36.8036], [28.7175, 36.7009], [28.817, 36.6755], [28.8958, 36.6734], [28.9694, 36.7152], [29.0382, 36.6935], [29.0583, 36.638], [29.0657, 36.5898], [29.1159, 36.5199], [29.1435, 36.3972], [29.2239, 36.3247], [29.3483, 36.2591], [29.689, 36.1564], [29.7891, 36.1681], [30.0833, 36.2495], [30.2314, 36.3072], [30.2954, 36.2877], [30.3875, 36.2432], [30.4463, 36.2697], [30.4839, 36.3104], [30.5061, 36.4512], [30.5585, 36.5258], [30.5822, 36.7972], [30.6442, 36.8655], [30.95, 36.8486], [31.2406, 36.8216], [31.3527, 36.801], [31.7782, 36.6125], [32.0221, 36.5353], [32.1306, 36.449], [32.2841, 36.2681], [32.3777, 36.1834], [32.5339, 36.1009], [32.7947, 36.0358], [32.9296, 36.0956], [33.0995, 36.103], [33.4419, 36.1527], [33.5228, 36.1443], [33.6948, 36.1818], [33.9547, 36.295], [34.0234, 36.3406], [34.2996, 36.6041], [34.6013, 36.7845], [34.7034, 36.8168], [34.8113, 36.7994], [34.9431, 36.7258], [35.176, 36.6348], [35.3929, 36.575], [35.5374, 36.5972], [35.6258, 36.6528], [35.6612, 36.7242], [35.7342, 36.7639], [35.8015, 36.7782], [35.9046, 36.8475], [36.0491, 36.9105], [36.1353, 36.8518], [36.1798, 36.8073], [36.1883, 36.7433], [36.1883, 36.6591], [36.0316, 36.5226], [35.8829, 36.4062], [35.811, 36.3099], [35.8871, 36.1591], [35.957, 35.9982], [35.8925, 35.9167], [35.8395, 35.849], [35.7644, 35.5717], [35.9025, 35.4209], [35.9157, 35.3505], [35.9178, 35.2997], [35.9433, 35.224], [35.8898, 35.0605], [35.8877, 34.9489], [35.8993, 34.852], [35.9761, 34.6293], [35.9776, 34.5472], [35.9216, 34.4932], [35.8041, 34.4371], [35.648, 34.2482], [35.612, 34.0323], [35.5109, 33.8799], [35.3358, 33.5037], [35.2516, 33.3926], [35.2035, 33.2592], [35.1553, 33.1597], [35.1087, 33.0836], [35.077, 32.9671], [35.0061, 32.8264], [34.922, 32.6142], [34.804, 32.1961], [34.6785, 31.8956], [34.4838, 31.5924], [34.4775, 31.5849], [34.3875, 31.4839], [34.198, 31.3225], [34.1763, 31.304], [33.9028, 31.1812], [33.6662, 31.1304], [33.3778, 31.1309], [33.1942, 31.0844], [33.1567, 31.1262], [33.1297, 31.168], [32.9016, 31.1108], [32.8545, 31.1177], [32.6847, 31.0738], [32.6032, 31.0685], [32.5328, 31.1008], [32.3237, 31.2563], [32.2507, 31.295], [32.2164, 31.2939], [32.2428, 31.2463], [32.2819, 31.2008], [32.2063, 31.1193], [32.1015, 31.0928], [32.0655, 31.1532], [32.0084, 31.2204], [31.902, 31.2399], [31.7713, 31.2923], [31.8761, 31.4135], [31.8925, 31.4823], [32.0761, 31.3447], [32.1359, 31.341], [31.9644, 31.5019], [31.8888, 31.5416], [31.839, 31.5262], [31.6067, 31.4558], [31.5242, 31.4585], [31.194, 31.5876], [31.0828, 31.6035], [31.0522, 31.5913], [31.031, 31.5077], [31.0019, 31.4627], [30.8416, 31.44], [30.7003, 31.404], [30.5632, 31.4172], [30.8839, 31.5225], [30.9236, 31.567], [30.5711, 31.4728], [30.3949, 31.4574], [30.3436, 31.4029], [30.3124, 31.3569], [30.2621, 31.3167], [30.2224, 31.2585], [30.1277, 31.2558], [30.0494, 31.2653], [29.9298, 31.2272], [29.5917, 31.0113], [29.4287, 30.9277], [29.2789, 30.8669], [29.1599, 30.8346], [29.072, 30.8304], [28.9725, 30.8568], [28.8069, 30.9426], [28.5148, 31.0505], [27.9677, 31.0976], [27.8301, 31.1949], [27.62, 31.1918], [27.5401, 31.2124], [27.248, 31.3781], [26.7686, 31.4701], [26.4574, 31.5119], [25.8933, 31.6209], [25.3822, 31.513], [25.2255, 31.5336], [25.1504, 31.6548], [25.1149, 31.7125], [25.025, 31.8834], [24.9509, 31.9538], [24.8784, 31.9845], [24.6836, 32.0157], [24.4799, 31.9967], [24.1296, 32.0093], [24.0391, 32.0369], [23.8984, 32.1273], [23.7978, 32.1586], [23.2861, 32.2136], [23.1062, 32.3316], [23.1105, 32.3972], [23.1295, 32.448], [23.0909, 32.6189], [22.9168, 32.6872], [22.7543, 32.7407], [22.5236, 32.7941], [22.3405, 32.8798], [22.1876, 32.9185], [21.8394, 32.9089], [21.7214, 32.9423], [21.6362, 32.9375], [21.4245, 32.7994], [21.3187, 32.7777], [21.0626, 32.7756], [20.6213, 32.5803], [20.3704, 32.4306], [20.1217, 32.2189], [20.0312, 32.1078], [19.9884, 32.0273], [19.9841, 32.0294], [15.3592, 32.149], [15.3592, 32.1596], [15.2671, 32.3115], [15.1766, 32.3914], [14.5136, 32.511], [14.4236, 32.5502], [14.2368, 32.6814], [14.1559, 32.7099], [13.8352, 32.792], [13.6479, 32.7989], [13.5362, 32.8242], [13.2833, 32.9147], [13.1383, 32.8973], [12.7536, 32.801], [12.4271, 32.829], [12.28, 32.8587], [11.8133, 33.0936], [11.6571, 33.119], [11.5048, 33.182], [11.4005, 33.2248], [11.338, 33.2095], [11.2343, 33.2338], [11.2026, 33.2492], [11.2322, 33.2714], [11.2698, 33.2862], [11.2576, 33.309], [11.1502, 33.3693], [11.0846, 33.563], [10.9581, 33.6265], [10.8983, 33.5339], [10.8279, 33.5191], [10.7226, 33.5143], [10.7041, 33.6095], [10.7131, 33.6889], [10.7078, 33.6884], [10.747, 33.7233], [10.757, 33.7175], [10.7845, 33.7175], [10.8576, 33.6873], [10.883, 33.69], [10.9311, 33.7175], [10.9576, 33.7223], [10.9931, 33.7461], [11.0375, 33.7852], [11.0338, 33.8048], [11.0179, 33.8233], [10.9264, 33.89], [11.182, 34.7086], [11.1237, 34.6816], [11.1528, 34.7446], [11.1878, 34.7705], [11.1126, 35.2309], [11.12, 35.2404], [11.0433, 35.3352], [11.0317, 35.4537], [11.0004, 35.5516], [11.0042, 35.6336], [10.7835, 35.7722], [10.6888, 35.7992], [10.5909, 35.8871], [10.5057, 36.0326], [10.4766, 36.175], [10.4882, 36.2548], [10.5258, 36.3231], [10.6422, 36.4194], [10.7983, 36.493], [10.9671, 36.7427], [11.0566, 36.8417], [11.1269, 36.874], [11.0772, 36.9666], [11.0592, 37.0481]], [[32.3174, 34.9531], [32.4137, 34.778], [32.4492, 34.7293], [32.5058, 34.7065], [32.6931, 34.6494], [32.7503, 34.6478], [32.8672, 34.661], [32.9143, 34.6356], [32.9418, 34.5758], [33.008, 34.5694], [33.0239, 34.6001], [33.0249, 34.6366], [33.0625, 34.6748], [33.1154, 34.6954], [33.1762, 34.698], [33.2963, 34.7176], [33.4149, 34.751], [33.5144, 34.8065], [33.6996, 34.97], [33.7588, 34.9732], [33.8224, 34.9658], [33.9367, 34.9716], [34.0499, 34.9886], [34.0234, 35.0457], [34.0044, 35.0653], [33.9313, 35.1404], [33.9081, 35.2023], [33.9419, 35.2923], [34.4632, 35.5934], [34.5563, 35.6622], [34.4113, 35.6294], [34.2722, 35.5701], [34.1923, 35.5458], [34.0636, 35.4738], [33.6075, 35.3542], [33.4588, 35.3357], [33.308, 35.3415], [33.1233, 35.3584], [32.9418, 35.3902], [32.9265, 35.278], [32.8799, 35.1806], [32.7725, 35.1595], [32.7127, 35.1711], [32.6524, 35.1828], [32.5561, 35.1558], [32.4751, 35.0902], [32.391, 35.0499], [32.301, 35.0827], [32.3174, 34.9531]]]}}, {"type": "Feature", "properties": {"name": "Sea of Galilee", "kind": "lake", "source": "Natural Earth 10m lakes", "note": "modern extent, geologically stable over biblical timeframe"}, "geometry": {"type": "Polygon", "coordinates": [[[35.6397, 32.85], [35.6373, 32.8406], [35.6371, 32.8323], [35.6409, 32.8208], [35.635, 32.794], [35.6356, 32.782], [35.6409, 32.7723], [35.635, 32.7696], [35.6338, 32.7655], [35.6344, 32.7599], [35.6341, 32.7522], [35.5994, 32.7178], [35.577, 32.7202], [35.5696, 32.7375], [35.5664, 32.757], [35.5552, 32.7661], [35.5493, 32.7696], [35.5378, 32.7935], [35.5211, 32.8146], [35.5172, 32.8208], [35.5237, 32.852], [35.5549, 32.8806], [35.5917, 32.898], [35.6135, 32.8959], [35.6303, 32.8826], [35.6376, 32.875], [35.6409, 32.865], [35.6397, 32.85]]]}}, {"type": "Feature", "properties": {"name": "Dead Sea", "kind": "lake", "source": "Natural Earth 10m lakes", "note": "modern extent \u2014 shoreline has receded significantly since biblical times due to modern water diversion"}, "geometry": {"type": "Polygon", "coordinates": [[[35.559, 31.7655], [35.5864, 31.7529], [35.5882, 31.7305], [35.5785, 31.7014], [35.5546, 31.5383], [35.5685, 31.4968], [35.572, 31.4682], [35.5446, 31.354], [35.5452, 31.3458], [35.5476, 31.3387], [35.5476, 31.3319], [35.5402, 31.3234], [35.5237, 31.3102], [35.5128, 31.3049], [35.5037, 31.3063], [35.5013, 31.3181], [35.5125, 31.3543], [35.5105, 31.3676], [35.4913, 31.367], [35.4422, 31.3222], [35.4148, 31.3266], [35.406, 31.3449], [35.4019, 31.3952], [35.3936, 31.4358], [35.4007, 31.4723], [35.3927, 31.5141], [35.3983, 31.5324], [35.408, 31.5486], [35.4148, 31.5663], [35.4142, 31.5777], [35.4077, 31.6022], [35.408, 31.6148], [35.4127, 31.6242], [35.4354, 31.6557], [35.4545, 31.6952], [35.4766, 31.7305], [35.5069, 31.7558], [35.5514, 31.7655], [35.559, 31.7655]]]}}, {"type": "Feature", "properties": {"name": "Dead Sea", "kind": "lake", "source": "Natural Earth 10m lakes", "note": "modern extent \u2014 shoreline has receded significantly since biblical times due to modern water diversion"}, "geometry": {"type": "Polygon", "coordinates": [[[35.5111, 31.1995], [35.5264, 31.1889], [35.5311, 31.1697], [35.5275, 31.1636], [35.5072, 31.1447], [35.5037, 31.1391], [35.5058, 31.1353], [35.5096, 31.1318], [35.5122, 31.1226], [35.5167, 31.1165], [35.5178, 31.1103], [35.5105, 31.1038], [35.4855, 31.0885], [35.4763, 31.0864], [35.4593, 31.0873], [35.416, 31.0938], [35.4007, 31.1009], [35.393, 31.1126], [35.3883, 31.1418], [35.3636, 31.1756], [35.3586, 31.2104], [35.3698, 31.2354], [35.4007, 31.2304], [35.4051, 31.236], [35.4213, 31.2516], [35.4613, 31.2192], [35.4757, 31.2107], [35.5111, 31.1995]]]}}]}